$$SOE
2461295.500000000, A.D. 2026-Sep-12 00:00:00.0000, -4.236975355716100E+08, 1.511083769318077E+08, 1.980091982323770E+07,
2461302.500000000, A.D. 2026-Sep-19 00:00:00.0000, -4.272117745795175E+08, 1.424899927506555E+08, 1.914388692329209E+07,
2461309.500000000, A.D. 2026-Sep-26 00:00:00.0000, -4.304995823214728E+08, 1.337962346106492E+08, 1.847670218138045E+07,
2461316.500000000, A.D. 2026-Oct-03 00:00:00.0000, -4.335598772372770E+08, 1.250319102497635E+08, 1.779974813494579E+07,
2461323.500000000, A.D. 2026-Oct-10 00:00:00.0000, -4.363916341357000E+08, 1.162018166521192E+08, 1.711340736935312E+07,
2461330.500000000, A.D. 2026-Oct-17 00:00:00.0000, -4.389938829014483E+08, 1.073107419077543E+08, 1.641806264893728E+07,
2461337.500000000, A.D. 2026-Oct-24 00:00:00.0000, -4.413657073483072E+08, 9.836346700428650E+07, 1.571409704514067E+07,
2461344.500000000, A.D. 2026-Oct-31 00:00:00.0000, -4.435062441175845E+08, 8.936476748182760E+07, 1.500189404715552E+07,
2461351.500000000, A.D. 2026-Nov-07 00:00:00.0000, -4.454146812808957E+08, 8.031941502347881E+07, 1.428183763001422E+07,
2461358.500000000, A.D. 2026-Nov-14 00:00:00.0000, -4.470902564445437E+08, 7.123217986703391E+07, 1.355431233426898E+07,
2461365.500000000, A.D. 2026-Nov-21 00:00:00.0000, -4.485322561660936E+08, 6.210783471765020E+07, 1.281970357921030E+07,
2461372.500000000, A.D. 2026-Nov-28 00:00:00.0000, -4.497400176820806E+08, 5.295115715180361E+07, 1.207839805540349E+07,
2461379.500000000, A.D. 2026-Dec-05 00:00:00.0000, -4.507129293278449E+08, 4.376692985625182E+07, 1.133078381113722E+07,
2461386.500000000, A.D. 2026-Dec-12 00:00:00.0000, -4.514504294822544E+08, 3.455994181240820E+07, 1.057725027219835E+07,
2461393.500000000, A.D. 2026-Dec-19 00:00:00.0000, -4.519520059235060E+08, 2.533499042995567E+07, 9.818188368730376E+06,
2461400.500000000, A.D. 2026-Dec-26 00:00:00.0000, -4.522171957403525E+08, 1.609688375958210E+07, 9.053990711322907E+06,
2461407.500000000, A.D. 2027-Jan-02 00:00:00.0000, -4.522455855254860E+08, 6.850442593098672E+06, 8.285051775475163E+06,
2461414.500000000, A.D. 2027-Jan-09 00:00:00.0000, -4.520368117364478E+08, -2.399497529416084E+06, 7.511768085395705E+06,
2461421.500000000, A.D. 2027-Jan-16 00:00:00.0000, -4.515905611911955E+08, -1.164808439711549E+07, 6.734538394610106E+06,
2461428.500000000, A.D. 2027-Jan-23 00:00:00.0000, -4.509065716547913E+08, -2.089044733047375E+07, 5.953763855874732E+06,
2461435.500000000, A.D. 2027-Jan-30 00:00:00.0000, -4.499846323313811E+08, -3.012169555619809E+07, 5.169848159222688E+06,
2461442.500000000, A.D. 2027-Feb-06 00:00:00.0000, -4.488245838380556E+08, -3.933691641627356E+07, 4.383197626923988E+06,
2461449.500000000, A.D. 2027-Feb-13 00:00:00.0000, -4.474263181225604E+08, -4.853117219439007E+07, 3.594221407156814E+06,
2461456.500000000, A.D. 2027-Feb-20 00:00:00.0000, -4.457897806927580E+08, -5.769949635520987E+07, 2.803331918266919E+06,
2461463.500000000, A.D. 2027-Feb-27 00:00:00.0000, -4.439149737697393E+08, -6.683689241409984E+07, 2.010945152497340E+06,
2461470.500000000, A.D. 2027-Mar-06 00:00:00.0000, -4.418019573544427E+08, -7.593833351584902E+07, 1.217480719148319E+06,
2461477.500000000, A.D. 2027-Mar-13 00:00:00.0000, -4.394508498126090E+08, -8.499876067304924E+07, 4.233619411940202E+05,
2461484.500000000, A.D. 2027-Mar-20 00:00:00.0000, -4.368618291112596E+08, -9.401308050042374E+07, -3.709839596278667E+05,
2461491.500000000, A.D. 2027-Mar-27 00:00:00.0000, -4.340351345096025E+08, -1.029761629963745E+08, -1.165125653072760E+06,
2461498.500000000, A.D. 2027-Apr-03 00:00:00.0000, -4.309710685064707E+08, -1.118828394216133E+08, -1.958627488832399E+06,
2461505.500000000, A.D. 2027-Apr-10 00:00:00.0000, -4.276699989874132E+08, -1.207279002543409E+08, -2.751049287116453E+06,
2461512.500000000, A.D. 2027-Apr-17 00:00:00.0000, -4.241323615536278E+08, -1.295060932398731E+08, -3.541946134749934E+06,
2461519.500000000, A.D. 2027-Apr-24 00:00:00.0000, -4.203586619584755E+08, -1.382121216015842E+08, -4.330868199318856E+06,
2461526.500000000, A.D. 2027-May-01 00:00:00.0000, -4.163494783579713E+08, -1.468406423908871E+08, -5.117360586775124E+06,
2461533.500000000, A.D. 2027-May-08 00:00:00.0000, -4.121054630747634E+08, -1.553862642337798E+08, -5.900963209757671E+06,
2461540.500000000, A.D. 2027-May-15 00:00:00.0000, -4.076273453797944E+08, -1.638435435268848E+08, -6.681210451715663E+06,
2461547.500000000, A.D. 2027-May-22 00:00:00.0000, -4.029159368639531E+08, -1.722069816820863E+08, -7.457630695684381E+06,
2461554.500000000, A.D. 2027-May-29 00:00:00.0000, -3.979721360543932E+08, -1.804710248959818E+08, -8.229746146075062E+06,
2461561.500000000, A.D. 2027-Jun-05 00:00:00.0000, -3.927969314008056E+08, -1.886300633191415E+08, -8.997072769072622E+06,
2461568.500000000, A.D. 2027-Jun-12 00:00:00.0000, -3.873914046469339E+08, -1.966784292003624E+08, -9.759120132512704E+06,
2461575.500000000, A.D. 2027-Jun-19 00:00:00.0000, -3.817567349258513E+08, -2.046103949502676E+08, -1.051539119175908E+07,
2461582.500000000, A.D. 2027-Jun-26 00:00:00.0000, -3.758942033086406E+08, -2.124201713969990E+08, -1.126538206923908E+07,
2461589.500000000, A.D. 2027-Jul-03 00:00:00.0000, -3.698051976846495E+08, -2.201019062379974E+08, -1.200858183978052E+07,
2461596.500000000, A.D. 2027-Jul-10 00:00:00.0000, -3.634912179468918E+08, -2.276496826920743E+08, -1.274447232509464E+07,
2461603.500000000, A.D. 2027-Jul-17 00:00:00.0000, -3.569538814564286E+08, -2.350575184047264E+08, -1.347252790463519E+07,
2461610.500000000, A.D. 2027-Jul-24 00:00:00.0000, -3.501949286394771E+08, -2.423193646851149E+08, -1.419221536315970E+07,
2461617.500000000, A.D. 2027-Jul-31 00:00:00.0000, -3.432162283160878E+08, -2.494291058563502E+08, -1.490299379447013E+07,
2461624.500000000, A.D. 2027-Aug-07 00:00:00.0000, -3.360197829711186E+08, -2.563805575859135E+08, -1.560431444994384E+07,
2461631.500000000, A.D. 2027-Aug-14 00:00:00.0000, -3.286077362779216E+08, -2.631674644700008E+08, -1.629562034290197E+07,
2461638.500000000, A.D. 2027-Aug-21 00:00:00.0000, -3.209823822663366E+08, -2.697835002598016E+08, -1.697634594229692E+07,
2461645.500000000, A.D. 2027-Aug-28 00:00:00.0000, -3.131461727154763E+08, -2.762222695529461E+08, -1.764591717422475E+07,
2461652.500000000, A.D. 2027-Sep-04 00:00:00.0000, -3.051017239634560E+08, -2.824773084747931E+08, -1.830375142063998E+07,
2461659.500000000, A.D. 2027-Sep-11 00:00:00.0000, -2.968518245383243E+08, -2.885420850392191E+08, -1.894925744371559E+07,
2461666.500000000, A.D. 2027-Sep-18 00:00:00.0000, -2.883994434846761E+08, -2.944099998704637E+08, -1.958183530397083E+07,
2461673.500000000, A.D. 2027-Sep-25 00:00:00.0000, -2.797477391645757E+08, -3.000743873983856E+08, -2.020087630270287E+07,
2461680.500000000, A.D. 2027-Oct-02 00:00:00.0000, -2.709000684651250E+08, -3.055285175364586E+08, -2.080576295674245E+07,
2461687.500000000, A.D. 2027-Oct-09 00:00:00.0000, -2.618599963957339E+08, -3.107655978849282E+08, -2.139586901125540E+07,
2461694.500000000, A.D. 2027-Oct-16 00:00:00.0000, -2.526313060135445E+08, -3.157787765537206E+08, -2.197055950408508E+07,
2461701.500000000, A.D. 2027-Oct-23 00:00:00.0000, -2.432180084144918E+08, -3.205611456547266E+08, -2.252919090941837E+07,
2461708.500000000, A.D. 2027-Oct-30 00:00:00.0000, -2.336243524099806E+08, -3.251057449031532E+08, -2.307111134940732E+07,
2461715.500000000, A.D. 2027-Nov-06 00:00:00.0000, -2.238548350461314E+08, -3.294055642553012E+08, -2.359566067974068E+07,
2461722.500000000, A.D. 2027-Nov-13 00:00:00.0000, -2.139142149429487E+08, -3.334535477185204E+08, -2.410217044226032E+07,
2461729.500000000, A.D. 2027-Nov-20 00:00:00.0000, -2.038075255413413E+08, -3.372426005829294E+08, -2.458996413536151E+07,
2461736.500000000, A.D. 2027-Nov-27 00:00:00.0000, -1.935400866270209E+08, -3.407655971769343E+08, -2.505835771428098E+07,
2461743.500000000, A.D. 2027-Dec-04 00:00:00.0000, -1.831175161351086E+08, -3.440153883001779E+08, -2.550666006689397E+07,
2461750.500000000, A.D. 2027-Dec-11 00:00:00.0000, -1.725457427584985E+08, -3.469848093676561E+08, -2.593417349935836E+07,
2461757.500000000, A.D. 2027-Dec-18 00:00:00.0000, -1.618310190494244E+08, -3.496666896773135E+08, -2.634019429099591E+07,
2461764.500000000, A.D. 2027-Dec-25 00:00:00.0000, -1.509799348183637E+08, -3.520538628808325E+08, -2.672401333958712E+07,
2461771.500000000, A.D. 2028-Jan-01 00:00:00.0000, -1.399994307369324E+08, -3.541391787252192E+08, -2.708491690736581E+07,
$$EOE